{"type": "FeatureCollection", "features": [ {"type": "Feature", "properties": {"norad_id": 33153, "name": "INTELSAT 25 (IS-25)", "group": "intelsat", "lat": -2.07082549023599, "lon": -28.86317896091282, "alt_km": 35776.76582774173, "timestamp": "2025-12-09T18:55:16.906335+00:00", "meta": {"OBJECT_NAME": "INTELSAT 25 (IS-25)", "OBJECT_ID": "2008-034A", "EPOCH": "2025-12-09T11:42:40.881024", "MEAN_MOTION": 1.00270303, "ECCENTRICITY": 0.00053915, "INCLINATION": 2.2195, "RA_OF_ASC_NODE": 82.6821, "ARG_OF_PERICENTER": 184.562, "MEAN_ANOMALY": 315.4069, "EPHEMERIS_TYPE": 0, "CLASSIFICATION_TYPE": "U", "NORAD_CAT_ID": 33153, "ELEMENT_SET_NO": 999, "REV_AT_EPOCH": 6379, "BSTAR": 0, "MEAN_MOTION_DOT": -2.22e-06, "MEAN_MOTION_DDOT": 0}, "tle": {"line1": "1 33153U 08034A   25343.48797316 -.00000222  00000+0  00000+0 0  9997", "line2": "2 33153   2.2195  82.6821 0005391 184.5620 315.4069  1.00270303 63796"}}, "geometry": {"type": "Point", "coordinates": [-28.86317896091282, -2.07082549023599]}}, {"type": "Feature", "properties": {"norad_id": 33376, "name": "GALAXY 19 (G-19)", "group": "intelsat", "lat": -0.03178189572008395, "lon": -94.39036030263304, "alt_km": 35771.24714363236, "timestamp": "2025-12-09T18:55:16.906347+00:00", "meta": {"OBJECT_NAME": "GALAXY 19 (G-19)", "OBJECT_ID": "2008-045A", "EPOCH": "2025-12-09T13:06:40.336416", "MEAN_MOTION": 1.00278002, "ECCENTRICITY": 0.00031023, "INCLINATION": 0.0187, "RA_OF_ASC_NODE": 316.6753, "ARG_OF_PERICENTER": 305.1983, "MEAN_ANOMALY": 276.3406, "EPHEMERIS_TYPE": 0, "CLASSIFICATION_TYPE": "U", "NORAD_CAT_ID": 33376, "ELEMENT_SET_NO": 999, "REV_AT_EPOCH": 6300, "BSTAR": 0, "MEAN_MOTION_DOT": -1.38e-06, "MEAN_MOTION_DDOT": 0}, "tle": {"line1": "1 33376U 08045A   25343.54630019 -.00000138  00000+0  00000+0 0  9995", "line2": "2 33376   0.0187 316.6753 0003102 305.1983 276.3406  1.00278002 63003"}}, "geometry": {"type": "Point", "coordinates": [-94.39036030263304, -0.03178189572008395]}}, {"type": "Feature", "properties": {"norad_id": 35493, "name": "FM-5", "group": "intelsat", "lat": -0.016920673365179145, "lon": -83.54213744137027, "alt_km": 35786.85223209738, "timestamp": "2025-12-09T18:55:16.906359+00:00", "meta": {"OBJECT_NAME": "FM-5", "OBJECT_ID": "2009-034A", "EPOCH": "2025-12-09T12:27:37.559808", "MEAN_MOTION": 1.00270693, "ECCENTRICITY": 6.254e-05, "INCLINATION": 0.0203, "RA_OF_ASC_NODE": 288.1902, "ARG_OF_PERICENTER": 248.5035, "MEAN_ANOMALY": 2.5822, "EPHEMERIS_TYPE": 0, "CLASSIFICATION_TYPE": "U", "NORAD_CAT_ID": 35493, "ELEMENT_SET_NO": 999, "REV_AT_EPOCH": 4474, "BSTAR": 0, "MEAN_MOTION_DOT": -1.98e-06, "MEAN_MOTION_DDOT": 0}, "tle": {"line1": "1 35493U 09034A   25343.51918472 -.00000198  00000+0  00000+0 0  9991", "line2": "2 35493   0.0203 288.1902 0000625 248.5035   2.5822  1.00270693 44747"}}, "geometry": {"type": "Point", "coordinates": [-83.54213744137027, -0.016920673365179145]}}, {"type": "Feature", "properties": {"norad_id": 36097, "name": "INTELSAT 14 (IS-14)", "group": "intelsat", "lat": -0.01442435902702887, "lon": -42.37968898634102, "alt_km": 35779.510787676765, "timestamp": "2025-12-09T18:55:16.906371+00:00", "meta": {"OBJECT_NAME": "INTELSAT 14 (IS-14)", "OBJECT_ID": "2009-064A", "EPOCH": "2025-12-09T11:38:48.751872", "MEAN_MOTION": 1.0027037, "ECCENTRICITY": 0.00026709, "INCLINATION": 0.0101, "RA_OF_ASC_NODE": 349.1482, "ARG_OF_PERICENTER": 276.7938, "MEAN_ANOMALY": 302.243, "EPHEMERIS_TYPE": 0, "CLASSIFICATION_TYPE": "U", "NORAD_CAT_ID": 36097, "ELEMENT_SET_NO": 999, "REV_AT_EPOCH": 5870, "BSTAR": 0, "MEAN_MOTION_DOT": -2.71e-06, "MEAN_MOTION_DDOT": 0}, "tle": {"line1": "1 36097U 09064A   25343.48528648 -.00000271  00000+0  00000+0 0  9995", "line2": "2 36097   0.0101 349.1482 0002670 276.7938 302.2430  1.00270370 58701"}}, "geometry": {"type": "Point", "coordinates": [-42.37968898634102, -0.01442435902702887]}}, {"type": "Feature", "properties": {"norad_id": 36106, "name": "INTELSAT 15 (IS-15)", "group": "intelsat", "lat": 0.023432097389363422, "lon": 87.73874755414874, "alt_km": 35796.87059230111, "timestamp": "2025-12-09T18:55:16.906386+00:00", "meta": {"OBJECT_NAME": "INTELSAT 15 (IS-15)", "OBJECT_ID": "2009-067A", "EPOCH": "2025-12-09T13:58:42.849696", "MEAN_MOTION": 1.00270775, "ECCENTRICITY": 0.00024792, "INCLINATION": 0.0282, "RA_OF_ASC_NODE": 286.1309, "ARG_OF_PERICENTER": 340.649, "MEAN_ANOMALY": 106.6185, "EPHEMERIS_TYPE": 0, "CLASSIFICATION_TYPE": "U", "NORAD_CAT_ID": 36106, "ELEMENT_SET_NO": 999, "REV_AT_EPOCH": 3932, "BSTAR": 0, "MEAN_MOTION_DOT": -1.83e-06, "MEAN_MOTION_DDOT": 0}, "tle": {"line1": "1 36106U 09067A   25343.58244039 -.00000183  00000+0  00000+0 0  9991", "line2": "2 36106   0.0282 286.1309 0002479 340.6490 106.6185  1.00270775 39320"}}, "geometry": {"type": "Point", "coordinates": [87.73874755414874, 0.023432097389363422]}}, {"type": "Feature", "properties": {"norad_id": 36131, "name": "DIRECTV 12", "group": "intelsat", "lat": -0.003379177393174417, "lon": -100.13387536174636, "alt_km": 35785.512628305616, "timestamp": "2025-12-09T18:55:16.906398+00:00", "meta": {"OBJECT_NAME": "DIRECTV 12", "OBJECT_ID": "2009-075A", "EPOCH": "2025-12-09T10:42:05.901696", "MEAN_MOTION": 1.00272635, "ECCENTRICITY": 5.415e-05, "INCLINATION": 0.0402, "RA_OF_ASC_NODE": 141.0164, "ARG_OF_PERICENTER": 200.367, "MEAN_ANOMALY": 154.8575, "EPHEMERIS_TYPE": 0, "CLASSIFICATION_TYPE": "U", "NORAD_CAT_ID": 36131, "ELEMENT_SET_NO": 999, "REV_AT_EPOCH": 4465, "BSTAR": 0, "MEAN_MOTION_DOT": -1.01e-06, "MEAN_MOTION_DDOT": 0}, "tle": {"line1": "1 36131U 09075A   25343.44590164 -.00000101  00000+0  00000+0 0  9996", "line2": "2 36131   0.0402 141.0164 0000541 200.3670 154.8575  1.00272635 44657"}}, "geometry": {"type": "Point", "coordinates": [-100.13387536174636, -0.003379177393174417]}}, {"type": "Feature", "properties": {"norad_id": 36397, "name": "INTELSAT 16 (IS-16)", "group": "intelsat", "lat": -0.018642490146500715, "lon": -73.60065942608156, "alt_km": 35777.69280751222, "timestamp": "2025-12-09T18:55:16.906409+00:00", "meta": {"OBJECT_NAME": "INTELSAT 16 (IS-16)", "OBJECT_ID": "2010-006A", "EPOCH": "2025-12-09T12:32:17.671200", "MEAN_MOTION": 1.00270281, "ECCENTRICITY": 0.00022839, "INCLINATION": 0.0146, "RA_OF_ASC_NODE": 310.5057, "ARG_OF_PERICENTER": 312.0313, "MEAN_ANOMALY": 287.8475, "EPHEMERIS_TYPE": 0, "CLASSIFICATION_TYPE": "U", "NORAD_CAT_ID": 36397, "ELEMENT_SET_NO": 999, "REV_AT_EPOCH": 5775, "BSTAR": 0, "MEAN_MOTION_DOT": -2.42e-06, "MEAN_MOTION_DDOT": 0}, "tle": {"line1": "1 36397U 10006A   25343.52242675 -.00000242  00000+0  00000+0 0  9992", "line2": "2 36397   0.0146 310.5057 0002283 312.0313 287.8475  1.00270281 57756"}}, "geometry": {"type": "Point", "coordinates": [-73.60065942608156, -0.018642490146500715]}}, {"type": "Feature", "properties": {"norad_id": 37185, "name": "XM-5", "group": "intelsat", "lat": -0.044242867544155136, "lon": -112.5859075260859, "alt_km": 35787.33763900426, "timestamp": "2025-12-09T18:55:16.906421+00:00", "meta": {"OBJECT_NAME": "XM-5", "OBJECT_ID": "2010-053A", "EPOCH": "2025-12-09T13:06:27.840384", "MEAN_MOTION": 1.0026927, "ECCENTRICITY": 0.00015567, "INCLINATION": 0.0636, "RA_OF_ASC_NODE": 272.6745, "ARG_OF_PERICENTER": 240.0284, "MEAN_ANOMALY": 7.2558, "EPHEMERIS_TYPE": 0, "CLASSIFICATION_TYPE": "U", "NORAD_CAT_ID": 37185, "ELEMENT_SET_NO": 999, "REV_AT_EPOCH": 5558, "BSTAR": 0, "MEAN_MOTION_DOT": -2e-07, "MEAN_MOTION_DDOT": 0}, "tle": {"line1": "1 37185U 10053A   25343.54615556 -.00000020  00000+0  00000+0 0  9998", "line2": "2 37185   0.0636 272.6745 0001556 240.0284   7.2558  1.00269270 55588"}}, "geometry": {"type": "Point", "coordinates": [-112.5859075260859, -0.044242867544155136]}}, {"type": "Feature", "properties": {"norad_id": 37238, "name": "INTELSAT 17 (IS-17)", "group": "intelsat", "lat": 0.022290443970635232, "lon": 68.61006204137993, "alt_km": 35795.9979002761, "timestamp": "2025-12-09T18:55:16.906433+00:00", "meta": {"OBJECT_NAME": "INTELSAT 17 (IS-17)", "OBJECT_ID": "2010-065B", "EPOCH": "2025-12-09T13:53:13.377120", "MEAN_MOTION": 1.00272555, "ECCENTRICITY": 0.00024477, "INCLINATION": 0.0146, "RA_OF_ASC_NODE": 285.3416, "ARG_OF_PERICENTER": 335.0922, "MEAN_ANOMALY": 92.4517, "EPHEMERIS_TYPE": 0, "CLASSIFICATION_TYPE": "U", "NORAD_CAT_ID": 37238, "ELEMENT_SET_NO": 999, "REV_AT_EPOCH": 5134, "BSTAR": 0, "MEAN_MOTION_DOT": 1e-08, "MEAN_MOTION_DDOT": 0}, "tle": {"line1": "1 37238U 10065B   25343.57862705  .00000001  00000+0  00000+0 0  9991", "line2": "2 37238   0.0146 285.3416 0002447 335.0922  92.4517  1.00272555 51344"}}, "geometry": {"type": "Point", "coordinates": [68.61006204137993, 0.022290443970635232]}}, {"type": "Feature", "properties": {"norad_id": 37392, "name": "INTELSAT 28 (IS-28)", "group": "intelsat", "lat": -1.2066401542600762, "lon": -29.06934541740391, "alt_km": 35779.73435384557, "timestamp": "2025-12-09T18:55:16.906445+00:00", "meta": {"OBJECT_NAME": "INTELSAT 28 (IS-28)", "OBJECT_ID": "2011-016A", "EPOCH": "2025-12-09T09:59:50.732160", "MEAN_MOTION": 1.00272298, "ECCENTRICITY": 0.00039831, "INCLINATION": 1.3162, "RA_OF_ASC_NODE": 85.0937, "ARG_OF_PERICENTER": 178.1199, "MEAN_ANOMALY": 293.4552, "EPHEMERIS_TYPE": 0, "CLASSIFICATION_TYPE": "U", "NORAD_CAT_ID": 37392, "ELEMENT_SET_NO": 999, "REV_AT_EPOCH": 5138, "BSTAR": 0, "MEAN_MOTION_DOT": -2.23e-06, "MEAN_MOTION_DDOT": 0}, "tle": {"line1": "1 37392U 11016A   25343.41655940 -.00000223  00000+0  00000+0 0  9990", "line2": "2 37392   1.3162  85.0937 0003983 178.1199 293.4552  1.00272298 51388"}}, "geometry": {"type": "Point", "coordinates": [-29.06934541740391, -1.2066401542600762]}}]}